start=new Date('2022-09-20T00:00:00.000Z').valueOf();
sats=[{"OBJECT_ID":"2022-045AR","MEAN_MOTION_DOT":"0.00000703","REV_AT_EPOCH":"2467","DECAY_DATE":null,"CLASSIFICATION_TYPE":"U","MEAN_ELEMENT_THEORY":"SGP4","PERIOD":"95.438","MEAN_MOTION":"15.08836256","COUNTRY_CODE":"US","BSTAR":"0.00006228100000","RCS_SIZE":"LARGE","OBJECT_NAME":"STARLINK-3827","ELEMENT_SET_NO":"999","APOAPSIS":"540.956","NORAD_CAT_ID":"52370","INCLINATION":"53.2174","FILE":"3578134","TLE_LINE1":"1 52370U 22045AR  22262.86318321  .00000703  00000-0  62281-4 0  9999","EPHEMERIS_TYPE":"0","GP_ID":"213009502","LAUNCH_DATE":"2022-04-29","PERIAPSIS":"538.558","CENTER_NAME":"EARTH","EPOCH":"2022-09-19T20:42:59.029344","MEAN_MOTION_DDOT":"0.0000000000000","REF_FRAME":"TEME","MEAN_ANOMALY":"311.8818","TLE_LINE2":"2 52370  53.2174 116.1229 0001733  48.2322 311.8818 15.08836256 24671","SEMIMAJOR_AXIS":"6917.892","TIME_SYSTEM":"UTC","SITE":"AFETR","OBJECT_TYPE":"PAYLOAD","RA_OF_ASC_NODE":"116.1229","ARG_OF_PERICENTER":"48.2322","ECCENTRICITY":"0.00017330"},{"EPOCH":"2022-09-19T17:26:55.489632","PERIAPSIS":"538.392","GP_ID":"213010004","LAUNCH_DATE":"2022-04-29","CENTER_NAME":"EARTH","EPHEMERIS_TYPE":"0","TLE_LINE1":"1 52371U 22045AS  22262.72703113 -.00000548  00000-0 -16344-4 0  9990","OBJECT_TYPE":"PAYLOAD","RA_OF_ASC_NODE":"116.7310","ECCENTRICITY":"0.00019720","ARG_OF_PERICENTER":"51.1229","TLE_LINE2":"2 52371  53.2171 116.7310 0001972  51.1229 308.9939 15.08836304 24642","SEMIMAJOR_AXIS":"6917.892","MEAN_ANOMALY":"308.9939","REF_FRAME":"TEME","SITE":"AFETR","TIME_SYSTEM":"UTC","MEAN_MOTION_DDOT":"0.0000000000000","MEAN_ELEMENT_THEORY":"SGP4","CLASSIFICATION_TYPE":"U","MEAN_MOTION":"15.08836304","PERIOD":"95.438","REV_AT_EPOCH":"2464","DECAY_DATE":null,"MEAN_MOTION_DOT":"-0.00000548","OBJECT_ID":"2022-045AS","FILE":"3578134","INCLINATION":"53.2171","NORAD_CAT_ID":"52371","APOAPSIS":"541.121","ELEMENT_SET_NO":"999","RCS_SIZE":"LARGE","OBJECT_NAME":"STARLINK-3798","COUNTRY_CODE":"US","BSTAR":"-0.00001634400000"},{"PERIOD":"95.437","MEAN_MOTION":"15.08843365","CLASSIFICATION_TYPE":"U","MEAN_ELEMENT_THEORY":"SGP4","DECAY_DATE":null,"REV_AT_EPOCH":"2466","MEAN_MOTION_DOT":"0.00001964","OBJECT_ID":"2022-045AT","INCLINATION":"53.2176","FILE":"3578143","APOAPSIS":"541.031","NORAD_CAT_ID":"52372","ELEMENT_SET_NO":"999","RCS_SIZE":"LARGE","OBJECT_NAME":"STARLINK-3796","BSTAR":"0.00014143000000","COUNTRY_CODE":"US","EPOCH":"2022-09-19T20:27:05.404896","CENTER_NAME":"EARTH","GP_ID":"213009523","LAUNCH_DATE":"2022-04-29","PERIAPSIS":"538.439","EPHEMERIS_TYPE":"0","TLE_LINE1":"1 52372U 22045AT  22262.85214589  .00001964  00000-0  14143-3 0  9994","ECCENTRICITY":"0.00018730","ARG_OF_PERICENTER":"56.8655","OBJECT_TYPE":"PAYLOAD","RA_OF_ASC_NODE":"116.1628","TIME_SYSTEM":"UTC","SITE":"AFETR","REF_FRAME":"TEME","SEMIMAJOR_AXIS":"6917.870","TLE_LINE2":"2 52372  53.2176 116.1628 0001873  56.8655 303.2516 15.08843365 24665","MEAN_ANOMALY":"303.2516","MEAN_MOTION_DDOT":"0.0000000000000"},{"TLE_LINE1":"1 52373U 22045AU  22262.70863461  .00002265  00000-0  16034-3 0  9994","EPHEMERIS_TYPE":"0","CENTER_NAME":"EARTH","PERIAPSIS":"538.640","LAUNCH_DATE":"2022-04-29","GP_ID":"213035273","EPOCH":"2022-09-19T17:00:26.030304","MEAN_MOTION_DDOT":"0.0000000000000","SITE":"AFETR","TIME_SYSTEM":"UTC","TLE_LINE2":"2 52373  53.2177 116.8048 0001611  59.7078 300.4073 15.08837184 24659","SEMIMAJOR_AXIS":"6917.889","MEAN_ANOMALY":"300.4073","REF_FRAME":"TEME","ECCENTRICITY":"0.00016110","ARG_OF_PERICENTER":"59.7078","OBJECT_TYPE":"PAYLOAD","RA_OF_ASC_NODE":"116.8048","OBJECT_ID":"2022-045AU","MEAN_MOTION_DOT":"0.00002265","DECAY_DATE":null,"REV_AT_EPOCH":"2465","MEAN_MOTION":"15.08837184","PERIOD":"95.438","MEAN_ELEMENT_THEORY":"SGP4","CLASSIFICATION_TYPE":"U","BSTAR":"0.00016034000000","COUNTRY_CODE":"US","RCS_SIZE":"LARGE","ELEMENT_SET_NO":"999","OBJECT_NAME":"STARLINK-3550","NORAD_CAT_ID":"52373","APOAPSIS":"540.868","FILE":"3578162","INCLINATION":"53.2177"},{"BSTAR":"0.00006890300000","COUNTRY_CODE":"US","OBJECT_NAME":"STARLINK-3762","RCS_SIZE":"LARGE","ELEMENT_SET_NO":"999","APOAPSIS":"540.795","NORAD_CAT_ID":"52374","INCLINATION":"53.2174","FILE":"3578162","OBJECT_ID":"2022-045AV","MEAN_MOTION_DOT":"0.00000809","DECAY_DATE":null,"REV_AT_EPOCH":"2463","PERIOD":"95.437","MEAN_MOTION":"15.08842488","CLASSIFICATION_TYPE":"U","MEAN_ELEMENT_THEORY":"SGP4","MEAN_MOTION_DDOT":"0.0000000000000","TIME_SYSTEM":"UTC","SITE":"AFETR","REF_FRAME":"TEME","MEAN_ANOMALY":"307.1117","TLE_LINE2":"2 52374  53.2174 117.3816 0001528  53.0015 307.1117 15.08842488 24635","SEMIMAJOR_AXIS":"6917.873","ECCENTRICITY":"0.00015280","ARG_OF_PERICENTER":"53.0015","RA_OF_ASC_NODE":"117.3816","OBJECT_TYPE":"PAYLOAD","TLE_LINE1":"1 52374U 22045AV  22262.57981903  .00000809  00000-0  68903-4 0  9997","EPHEMERIS_TYPE":"0","CENTER_NAME":"EARTH","LAUNCH_DATE":"2022-04-29","GP_ID":"213035593","PERIAPSIS":"538.681","EPOCH":"2022-09-19T13:54:56.364192"},{"ECCENTRICITY":"0.00016070","ARG_OF_PERICENTER":"65.3827","RA_OF_ASC_NODE":"116.7761","OBJECT_TYPE":"PAYLOAD","SITE":"AFETR","TIME_SYSTEM":"UTC","TLE_LINE2":"2 52375  53.2189 116.7761 0001607  65.3827 294.7332 15.08832142 24657","SEMIMAJOR_AXIS":"6917.904","MEAN_ANOMALY":"294.7332","REF_FRAME":"TEME","MEAN_MOTION_DDOT":"0.0000000000000","EPOCH":"2022-09-19T17:11:01.601664","CENTER_NAME":"EARTH","PERIAPSIS":"538.658","GP_ID":"213010002","LAUNCH_DATE":"2022-04-29","EPHEMERIS_TYPE":"0","TLE_LINE1":"1 52375U 22045AW  22262.71599076 -.00000507  00000-0 -13733-4 0  9998","FILE":"3578134","INCLINATION":"53.2189","NORAD_CAT_ID":"52375","APOAPSIS":"540.881","RCS_SIZE":"LARGE","OBJECT_NAME":"STARLINK-3785","ELEMENT_SET_NO":"999","BSTAR":"-0.00001373300000","COUNTRY_CODE":"US","MEAN_MOTION":"15.08832142","PERIOD":"95.438","MEAN_ELEMENT_THEORY":"SGP4","CLASSIFICATION_TYPE":"U","DECAY_DATE":null,"REV_AT_EPOCH":"2465","MEAN_MOTION_DOT":"-0.00000507","OBJECT_ID":"2022-045AW"},{"ARG_OF_PERICENTER":"56.4677","ECCENTRICITY":"0.00017660","RA_OF_ASC_NODE":"116.8242","OBJECT_TYPE":"PAYLOAD","SITE":"AFETR","TIME_SYSTEM":"UTC","SEMIMAJOR_AXIS":"6917.890","TLE_LINE2":"2 52376  53.2173 116.8242 0001766  56.4677 303.6484 15.08836837 24659","MEAN_ANOMALY":"303.6484","REF_FRAME":"TEME","MEAN_MOTION_DDOT":"0.0000000000000","EPOCH":"2022-09-19T16:55:07.335264","CENTER_NAME":"EARTH","PERIAPSIS":"538.533","GP_ID":"213035113","LAUNCH_DATE":"2022-04-29","EPHEMERIS_TYPE":"0","TLE_LINE1":"1 52376U 22045AX  22262.70494601  .00000327  00000-0  38639-4 0  9996","FILE":"3578162","INCLINATION":"53.2173","NORAD_CAT_ID":"52376","APOAPSIS":"540.977","ELEMENT_SET_NO":"999","RCS_SIZE":"LARGE","OBJECT_NAME":"STARLINK-3767","BSTAR":"0.00003863900000","COUNTRY_CODE":"US","MEAN_MOTION":"15.08836837","PERIOD":"95.438","MEAN_ELEMENT_THEORY":"SGP4","CLASSIFICATION_TYPE":"U","DECAY_DATE":null,"REV_AT_EPOCH":"2465","MEAN_MOTION_DOT":"0.00000327","OBJECT_ID":"2022-045AX"},{"RA_OF_ASC_NODE":"116.8205","OBJECT_TYPE":"PAYLOAD","ECCENTRICITY":"0.00017650","ARG_OF_PERICENTER":"54.2360","MEAN_ANOMALY":"305.8796","TLE_LINE2":"2 52377  53.2191 116.8205 0001765  54.2360 305.8796 15.08835911 24644","SEMIMAJOR_AXIS":"6917.893","REF_FRAME":"TEME","SITE":"AFETR","TIME_SYSTEM":"UTC","MEAN_MOTION_DDOT":"0.0000000000000","EPOCH":"2022-09-19T16:56:30.456384","PERIAPSIS":"538.537","GP_ID":"213034857","LAUNCH_DATE":"2022-04-29","CENTER_NAME":"EARTH","EPHEMERIS_TYPE":"0","TLE_LINE1":"1 52377U 22045AY  22262.70590806 -.00000485  00000-0 -12345-4 0  9994","FILE":"3578162","INCLINATION":"53.2191","NORAD_CAT_ID":"52377","APOAPSIS":"540.979","ELEMENT_SET_NO":"999","RCS_SIZE":"LARGE","OBJECT_NAME":"STARLINK-3805","COUNTRY_CODE":"US","BSTAR":"-0.00001234500000","CLASSIFICATION_TYPE":"U","MEAN_ELEMENT_THEORY":"SGP4","MEAN_MOTION":"15.08835911","PERIOD":"95.438","REV_AT_EPOCH":"2464","DECAY_DATE":null,"MEAN_MOTION_DOT":"-0.00000485","OBJECT_ID":"2022-045AY"},{"EPOCH":"2022-09-19T21:30:41.080320","CENTER_NAME":"EARTH","LAUNCH_DATE":"2022-04-29","GP_ID":"213035817","PERIAPSIS":"538.618","EPHEMERIS_TYPE":"0","TLE_LINE1":"1 52378U 22045AZ  22262.89630880 -.00000342  00000-0 -33942-5 0  9991","ARG_OF_PERICENTER":"53.5853","ECCENTRICITY":"0.00016500","RA_OF_ASC_NODE":"115.9611","OBJECT_TYPE":"PAYLOAD","TIME_SYSTEM":"UTC","SITE":"AFETR","REF_FRAME":"TEME","TLE_LINE2":"2 52378  53.2176 115.9611 0001650  53.5853 306.5291 15.08835362 24683","MEAN_ANOMALY":"306.5291","SEMIMAJOR_AXIS":"6917.895","MEAN_MOTION_DDOT":"0.0000000000000","PERIOD":"95.438","MEAN_MOTION":"15.08835362","MEAN_ELEMENT_THEORY":"SGP4","CLASSIFICATION_TYPE":"U","DECAY_DATE":null,"REV_AT_EPOCH":"2468","MEAN_MOTION_DOT":"-0.00000342","OBJECT_ID":"2022-045AZ","INCLINATION":"53.2176","FILE":"3578162","APOAPSIS":"540.901","NORAD_CAT_ID":"52378","RCS_SIZE":"LARGE","ELEMENT_SET_NO":"999","OBJECT_NAME":"STARLINK-3806","BSTAR":"-0.00000339420000","COUNTRY_CODE":"US"},{"OBJECT_ID":"2022-045BA","MEAN_MOTION_DOT":"0.00008173","REV_AT_EPOCH":"2468","DECAY_DATE":null,"MEAN_ELEMENT_THEORY":"SGP4","CLASSIFICATION_TYPE":"U","MEAN_MOTION":"15.08862947","PERIOD":"95.436","COUNTRY_CODE":"US","BSTAR":"0.00053066000000","RCS_SIZE":"LARGE","OBJECT_NAME":"STARLINK-3800","ELEMENT_SET_NO":"999","NORAD_CAT_ID":"52379","APOAPSIS":"540.842","FILE":"3578162","INCLINATION":"53.2179","TLE_LINE1":"1 52379U 22045BA  22262.89999027  .00008173  00000-0  53066-3 0  9998","EPHEMERIS_TYPE":"0","PERIAPSIS":"538.508","LAUNCH_DATE":"2022-04-29","GP_ID":"213035433","CENTER_NAME":"EARTH","EPOCH":"2022-09-19T21:35:59.159328","MEAN_MOTION_DDOT":"0.0000000000000","SEMIMAJOR_AXIS":"6917.810","TLE_LINE2":"2 52379  53.2179 115.9477 0001687  63.4917 296.6248 15.08862947 24688","MEAN_ANOMALY":"296.6248","REF_FRAME":"TEME","SITE":"AFETR","TIME_SYSTEM":"UTC","OBJECT_TYPE":"PAYLOAD","RA_OF_ASC_NODE":"115.9477","ARG_OF_PERICENTER":"63.4917","ECCENTRICITY":"0.00016870"}];
